{"type":"FeatureCollection","features":[{"type":"Feature","properties":{},"geometry":{"type":"LineString","coordinates":[[-65.503267,-33.680206],[-65.502818,-33.678681],[-65.502708,-33.678704],[-65.502304,-33.679108],[-65.502662,-33.680351],[-65.503285,-33.680214]]}},{"type":"Feature","properties":{},"geometry":{"type":"LineString","coordinates":[[-65.502219,-33.679086],[-65.50168,-33.679484],[-65.501993,-33.680482],[-65.502601,-33.680362],[-65.502223,-33.679086],[-65.502223,-33.679086]]}},{"type":"Feature","properties":{},"geometry":{"type":"Point","coordinates":[-65.50165,-33.679506]}},{"type":"Feature","properties":{},"geometry":{"type":"LineString","coordinates":[[-65.501645,-33.679504],[-65.501137,-33.679843],[-65.501104,-33.67989],[-65.501101,-33.67992],[-65.501101,-33.67995],[-65.501289,-33.680612],[-65.50195,-33.680482],[-65.501648,-33.679506],[-65.501648,-33.679506]]}},{"type":"Feature","properties":{},"geometry":{"type":"Point","coordinates":[-65.503292,-33.680263]}},{"type":"Feature","properties":{},"geometry":{"type":"LineString","coordinates":[[-65.503301,-33.680256],[-65.502648,-33.680384],[-65.503066,-33.681875],[-65.503711,-33.681758],[-65.503292,-33.680259],[-65.503292,-33.680259]]}},{"type":"Feature","properties":{},"geometry":{"type":"Point","coordinates":[-65.502605,-33.680398]}},{"type":"Feature","properties":{},"geometry":{"type":"LineString","coordinates":[[-65.50261,-33.680398],[-65.501991,-33.680515],[-65.502375,-33.681829],[-65.502755,-33.681964],[-65.503023,-33.681875],[-65.502605,-33.680387]]}},{"type":"Feature","properties":{},"geometry":{"type":"LineString","coordinates":[[-65.501951,-33.680521],[-65.501311,-33.680642],[-65.501569,-33.681605],[-65.502311,-33.681806],[-65.501946,-33.680521],[-65.501946,-33.680526]]}}]}